{"type":"FeatureCollection","name":"Aklan Municipalities Metadata","features":[{"type":"Feature","properties":{"province":"Aklan","municipality":"Altavas","municipality_psgc":"600401000","barangay_count":14,"flood_status":"normal"},"geometry":null},{"type":"Feature","properties":{"province":"Aklan","municipality":"Balete","municipality_psgc":"600402000","barangay_count":10,"flood_status":"normal"},"geometry":null},{"type":"Feature","properties":{"province":"Aklan","municipality":"Banga","municipality_psgc":"600403000","barangay_count":30,"flood_status":"normal"},"geometry":null},{"type":"Feature","properties":{"province":"Aklan","municipality":"Batan","municipality_psgc":"600404000","barangay_count":20,"flood_status":"normal"},"geometry":null},{"type":"Feature","properties":{"province":"Aklan","municipality":"Buruanga","municipality_psgc":"600405000","barangay_count":15,"flood_status":"normal"},"geometry":null},{"type":"Feature","properties":{"province":"Aklan","municipality":"Ibajay","municipality_psgc":"600406000","barangay_count":35,"flood_status":"normal"},"geometry":null},{"type":"Feature","properties":{"province":"Aklan","municipality":"Kalibo","municipality_psgc":"600407000","barangay_count":16,"flood_status":"normal"},"geometry":null},{"type":"Feature","properties":{"province":"Aklan","municipality":"Lezo","municipality_psgc":"600408000","barangay_count":12,"flood_status":"normal"},"geometry":null},{"type":"Feature","properties":{"province":"Aklan","municipality":"Libacao","municipality_psgc":"600409000","barangay_count":24,"flood_status":"normal"},"geometry":null},{"type":"Feature","properties":{"province":"Aklan","municipality":"Madalag","municipality_psgc":"600410000","barangay_count":25,"flood_status":"normal"},"geometry":null},{"type":"Feature","properties":{"province":"Aklan","municipality":"Makato","municipality_psgc":"600411000","barangay_count":18,"flood_status":"normal"},"geometry":null},{"type":"Feature","properties":{"province":"Aklan","municipality":"Malay","municipality_psgc":"600412000","barangay_count":17,"flood_status":"normal"},"geometry":null},{"type":"Feature","properties":{"province":"Aklan","municipality":"Malinao","municipality_psgc":"600413000","barangay_count":23,"flood_status":"normal"},"geometry":null},{"type":"Feature","properties":{"province":"Aklan","municipality":"Nabas","municipality_psgc":"600414000","barangay_count":20,"flood_status":"normal"},"geometry":null},{"type":"Feature","properties":{"province":"Aklan","municipality":"New Washington","municipality_psgc":"600415000","barangay_count":16,"flood_status":"normal"},"geometry":null},{"type":"Feature","properties":{"province":"Aklan","municipality":"Numancia","municipality_psgc":"600416000","barangay_count":17,"flood_status":"normal"},"geometry":null},{"type":"Feature","properties":{"province":"Aklan","municipality":"Tangalan","municipality_psgc":"600417000","barangay_count":15,"flood_status":"normal"},"geometry":null}]}