{"type":"FeatureCollection","name":"Aklan Municipalities","features":[{"type":"Feature","properties":{"adm1_psgc":"600000000","adm2_psgc":"600400000","adm3_psgc":"600401000","municipality_psgc":"600401000","municipality":"Altavas","province":"Aklan","geo_level":"Mun"},"geometry":{"type":"Polygon","coordinates":[[[122.4008174480001,11.508131168000032],[122.40274502300008,11.503744272000061],[122.40294442700008,11.497270278000029],[122.40859339800011,11.47817156000002],[122.42773217600008,11.478228268000064],[122.4351325040001,11.476300213000059],[122.43921808000003,11.475965538000024],[122.4499759160001,11.479149241000071],[122.45854391400007,11.478605795000021],[122.47260793400005,11.476178983000066],[122.48003528700008,11.481437853000045],[122.48361535700008,11.488979631000063],[122.49089373100001,11.486329369000032],[122.49407743300003,11.48684651900004],[122.50488909,11.484729438000045],[122.51400385200009,11.489480749000046],[122.53002524900012,11.493157942000039],[122.52769225800013,11.501654173000073],[122.53057059400008,11.50631433700005],[122.52670540000008,11.512783739000042],[122.5326996450001,11.518185372000062],[122.52796715700003,11.524966010000073],[122.52139934900005,11.52580363800007],[122.51768573700008,11.528158938000045],[122.50829130300006,11.524559077000049],[122.50422974900006,11.52734261300003],[122.49878680200004,11.535613845000055],[122.49605042700011,11.544646575000057],[122.48964257100009,11.552519261000045],[122.48910847800003,11.560746835000032],[122.4811795070001,11.557089635000068],[122.48200654000006,11.554956630000051],[122.47775180300003,11.556575626000038],[122.46830335800007,11.551202455000066],[122.46095435200004,11.552474712000045],[122.45774135600003,11.550535951000029],[122.45447159100001,11.554691782000075],[122.44600003000006,11.556280883000055],[122.44225548500003,11.551376858000028],[122.42969927100013,11.548936196000055],[122.42075641200005,11.551219102000061],[122.41601054800002,11.543065910000054],[122.41195751800002,11.543065910000056],[122.40755731400009,11.539331301000061],[122.40577596900006,11.533016830000065],[122.41034897600002,11.52211605900004],[122.40186764400006,11.514538694000068],[122.4008174480001,11.508131168000032]]]}},{"type":"Feature","properties":{"adm1_psgc":"600000000","adm2_psgc":"600400000","adm3_psgc":"600402000","municipality_psgc":"600402000","municipality":"Balete","province":"Aklan","geo_level":"Mun"},"geometry":{"type":"Polygon","coordinates":[[[122.33317171300007,11.545552955000062],[122.33976892400005,11.521150427000064],[122.35211160000006,11.508910468000067],[122.36592848000011,11.508320280000019],[122.36399910400007,11.489928799000038],[122.35117814200008,11.473529631000076],[122.34073189900005,11.45016815300005],[122.37082335300012,11.42764624600005],[122.40012524700012,11.455984206000037],[122.4019371070001,11.475952338000068],[122.40737120400001,11.483298681000063],[122.4008174480001,11.508131168000032],[122.41034897600002,11.52211605900004],[122.40577596900006,11.533016830000065],[122.41682939600003,11.543887108000035],[122.42022242700011,11.550401728000054],[122.41315829300004,11.57209634800006],[122.40247107400013,11.584191769000025],[122.39858262600002,11.592448781000027],[122.38543545200004,11.593512188000032],[122.37474798700009,11.609632499000043],[122.35651251800005,11.612752608000049],[122.35382418300004,11.605433370000071],[122.3400883390001,11.57955036000004],[122.345427072,11.56546465200006],[122.340934822,11.563099053000034],[122.33317171300007,11.545552955000062]]]}},{"type":"Feature","properties":{"adm1_psgc":"600000000","adm2_psgc":"600400000","adm3_psgc":"600403000","municipality_psgc":"600403000","municipality":"Banga","province":"Aklan","geo_level":"Mun"},"geometry":{"type":"Polygon","coordinates":[[[122.29076002200007,11.563312153000025],[122.29411712700005,11.551425259000041],[122.30792571200006,11.542125678000046],[122.31314410000003,11.532739180000021],[122.3300259030001,11.535604258000035],[122.33735058100002,11.556671313000036],[122.345427072,11.56546465200006],[122.34127974600005,11.575809897000054],[122.3400883390001,11.57955036000004],[122.34306256900003,11.588624519000064],[122.3551017100001,11.61078214100007],[122.37118800700011,11.616914205000056],[122.36693739100009,11.624695998000051],[122.36140344000012,11.638617561000045],[122.35260467800002,11.65032650100005],[122.339941124,11.66598598100006],[122.33385274200009,11.66267908100002],[122.32256465100012,11.649574530000054],[122.31734224000003,11.646603513000057],[122.31362979000006,11.638581252000048],[122.30928119900011,11.62949419700004],[122.31263784800002,11.617237561000023],[122.31252794200009,11.608637369000064],[122.31326981100004,11.596987270000056],[122.30332159900003,11.583242332000053],[122.30359610000005,11.57581338400007],[122.29076002200007,11.563312153000025]]]}},{"type":"Feature","properties":{"adm1_psgc":"600000000","adm2_psgc":"600400000","adm3_psgc":"600404000","municipality_psgc":"600404000","municipality":"Batan","province":"Aklan","geo_level":"Mun"},"geometry":{"type":"MultiPolygon","coordinates":[[[[122.37491793000004,11.60839422200007],[122.37727454300013,11.606572487000049],[122.37932864800007,11.603535985000063],[122.38335088500004,11.600496752000026],[122.38302916700002,11.59565798500006],[122.38543545200004,11.593512188000032],[122.38805504600009,11.59411144200004],[122.39266074000012,11.593340973000066],[122.39522502300008,11.591944042000021],[122.3967611820001,11.592163494000033],[122.40040407200001,11.591636811000056],[122.40099659000008,11.589464244000055],[122.40292776100011,11.588147536000065],[122.4005357420001,11.586216366000032],[122.40303945200003,11.584465432000055],[122.40729176600007,11.584591739000075],[122.41228086900003,11.58048678100005],[122.41417039600005,11.57770067900003],[122.41101886000003,11.576002617000029],[122.41130836600007,11.573024791000025],[122.41315829300004,11.57209634800006],[122.41442031900012,11.569223738000062],[122.41450445400005,11.566952091000074],[122.41599484600009,11.562973707000022],[122.4181920090001,11.554261939000066],[122.42075641200005,11.551219102000061],[122.42818232300009,11.55030634300004],[122.42969927100013,11.548936196000055],[122.43182806200002,11.54965252200003],[122.43572567400008,11.55034852400007],[122.43847292300005,11.551376858000028],[122.44225548500003,11.551376858000028],[122.44516368500001,11.553752839000028],[122.44683637600008,11.55405696400004],[122.44600003000006,11.556280883000055],[122.4490602940001,11.557117228000038],[122.45054102000006,11.558386308000024],[122.44906774700007,11.56054006000005],[122.44663690100005,11.562591335000034],[122.44401439,11.567314205000057],[122.44194658800006,11.56844747300005],[122.443171817,11.569953561000034],[122.4434120530001,11.575997051000058],[122.44231359200013,11.577027314000077],[122.4426375590001,11.580027314000061],[122.44564688100002,11.578369527000063],[122.45029603700004,11.579545273000067],[122.45434997200005,11.577335537000067],[122.45897901700003,11.579530306000038],[122.4626250330001,11.577903823000044],[122.46530447500004,11.573589126000057],[122.46944931900009,11.571356088000075],[122.47160967800005,11.57140847900007],[122.47449542600009,11.570066494000057],[122.47537608200003,11.566124208000074],[122.47305194600006,11.564429408000022],[122.47636030400008,11.562657814000033],[122.48305983900002,11.562633574000074],[122.48486193400004,11.564169558000058],[122.48585917200012,11.567123643000055],[122.48757872600004,11.56955936400004],[122.4869915810001,11.571760754000023],[122.48529753400008,11.572223093000048],[122.48473157500008,11.575115965000062],[122.47751157900008,11.57942730800005],[122.47610227400003,11.578001465000055],[122.47687245500003,11.579799186000058],[122.47599050100007,11.58120912700002],[122.47085333400003,11.584563536000074],[122.46744349100004,11.588742303000059],[122.46576468200008,11.592191161000075],[122.46609603,11.595496054000025],[122.46701491900002,11.596404566000045],[122.46747061000006,11.599425351000036],[122.46407298200006,11.59971451300004],[122.46256839600004,11.60078301200002],[122.461151287,11.599983272000026],[122.45662122300007,11.600105386000052],[122.45416443300007,11.602495516000031],[122.45135024800005,11.607153920000028],[122.44950653800004,11.608714896000036],[122.44586291000007,11.608806424000022],[122.44324681800005,11.606934350000072],[122.44129827600013,11.603529361000025],[122.44172632000006,11.59399509900004],[122.44101684200007,11.59407076600007],[122.43904160500007,11.596664880000045],[122.43993905000004,11.599383466000061],[122.43821718400012,11.600748693000067],[122.43522299800007,11.598209682000059],[122.43373764700004,11.59767436100003],[122.42985024100005,11.597914235000076],[122.4283902510001,11.596692053000028],[122.42669343400007,11.597107975000029],[122.42182521800008,11.591415057000061],[122.42058800700009,11.592032594000045],[122.42101713700005,11.597248759000024],[122.41938216900006,11.601177607000066],[122.41843658200003,11.605858715000066],[122.41714775600008,11.606117403000042],[122.41601918700007,11.601616428000057],[122.41281725500005,11.601863397000045],[122.40963062300011,11.605908679000036],[122.40678885200008,11.605677660000024],[122.405135899,11.607041925000031],[122.40421723600004,11.609380767000058],[122.40120556700003,11.612875200000076],[122.40223492100006,11.615711146000022],[122.4013528370001,11.617261847000064],[122.39615524800001,11.61983415000003],[122.3944656970001,11.619218282000077],[122.39498910300006,11.61387425600003],[122.3938880930001,11.611481250000056],[122.39092854500005,11.613082302000068],[122.38583228100002,11.614377641000035],[122.38449737500004,11.615232525000069],[122.37830170000005,11.613836947000037],[122.37570884200012,11.611284236000072],[122.37491793000004,11.60839422200007]]],[[[122.4871455010001,11.56140919000006],[122.4888541480001,11.561141047000035],[122.488892297,11.558521448000024],[122.49015123000004,11.557173499000044],[122.48910847800003,11.555138860000055],[122.48964257100009,11.552519261000045],[122.49149917900003,11.551412926000069],[122.4923511840001,11.549073091000025],[122.49289987300006,11.545072324000046],[122.49605042700011,11.544646575000057],[122.49923213300009,11.538524722000032],[122.49870560200009,11.535816847000035],[122.49961702000006,11.532555364000073],[122.50220410800011,11.532384473000036],[122.50346205000007,11.530395502000031],[122.50349527800006,11.527732463000062],[122.50576872400006,11.528232542000067],[122.5061835770001,11.52579694700006],[122.50829130300006,11.524559077000049],[122.51290822600005,11.524130841000046],[122.51302866700007,11.52566981500007],[122.51768573700008,11.528158938000045],[122.52139934900005,11.52580363800007],[122.52590124000007,11.526272399000048],[122.52796715700003,11.524966010000073],[122.5326996450001,11.518185372000062],[122.53536914300003,11.531552684000074],[122.535941728,11.535662641000046],[122.54055290300003,11.536009719000043],[122.54489137500003,11.534150374000037],[122.54795306900009,11.535207513000046],[122.55077428000004,11.535207513000044],[122.55464336900002,11.53899599600004],[122.55496579300006,11.54238144900006],[122.55900710000003,11.544948735000046],[122.5596826860001,11.548532923000037],[122.56222033400003,11.54826568800007],[122.56479972600006,11.546975991000068],[122.56955548200007,11.543106902000032],[122.57376008400001,11.541323981000062],[122.57478170600007,11.545978285000048],[122.57683022900005,11.547281151000048],[122.57760653800007,11.549103500000056],[122.57560132400009,11.552118936000056],[122.57735727300008,11.553467966000028],[122.577149823,11.557681264000053],[122.57431884700009,11.563781681000025],[122.57122674100003,11.566565726000022],[122.5669933590001,11.568594172000076],[122.55564891200004,11.571694971000053],[122.5503431300001,11.574723730000072],[122.5486466410001,11.576479104000043],[122.54733151500011,11.57738471500005],[122.53775232800002,11.579268996000051],[122.53591338700005,11.579037963000076],[122.53524171600009,11.575459323000073],[122.53133616800005,11.57955402600004],[122.52704990200004,11.58406143700006],[122.51687617900006,11.58847550100006],[122.50787030400011,11.592123358000038],[122.5019472550001,11.593903060000057],[122.49664015600001,11.59495080000005],[122.49387268000011,11.593317369000033],[122.49391599300009,11.591114823000051],[122.49536130100013,11.588781190000075],[122.49427868200006,11.586223964000052],[122.49457977600002,11.583615393000061],[122.49609693300012,11.584116892000049],[122.49798399600002,11.582786179000035],[122.49602454300009,11.582747612000048],[122.49517903800006,11.581078944000067],[122.49623150200013,11.57795175100006],[122.49547745500001,11.574912562000064],[122.4937303160001,11.570448122000071],[122.48973512700002,11.56671526600007],[122.48980403500002,11.565495912000074],[122.4871455010001,11.56140919000006]]]]}},{"type":"Feature","properties":{"adm1_psgc":"600000000","adm2_psgc":"600400000","adm3_psgc":"600405000","municipality_psgc":"600405000","municipality":"Buruanga","province":"Aklan","geo_level":"Mun"},"geometry":{"type":"Polygon","coordinates":[[[121.84359594500006,11.764169970000067],[121.86717004600007,11.76832618200007],[121.8777692450001,11.771529970000076],[121.88194273700003,11.779957265000062],[121.89276889900009,11.799825263000061],[121.89653425100005,11.800852179000058],[121.90380822800012,11.799311806000047],[121.91524676400003,11.807790202000033],[121.91785145200005,11.809015477000056],[121.92662548400006,11.81673691100002],[121.93343850300005,11.821365564000075],[121.93922150800007,11.82321341000005],[121.96455149200006,11.824228216000051],[121.96754248800006,11.823849226000048],[121.98013749200003,11.826667973000044],[121.99037648900003,11.827633858000071],[122.00332330500011,11.825534597000058],[121.99620779800011,11.83321783100007],[121.98186323900006,11.84218791200004],[121.96918401100004,11.847070361000018],[121.9649449850001,11.851536477000025],[121.94670992800002,11.857948328000075],[121.9333560460001,11.858689274000026],[121.92106813100007,11.86513000600007],[121.91233372000012,11.869106648000068],[121.90572223800007,11.870509535000053],[121.90272414000003,11.872717520000037],[121.89389741700008,11.884622244000072],[121.8861947480001,11.892650298000033],[121.88197357400009,11.884735659000057],[121.88385235400006,11.877195111000049],[121.87970113300003,11.868110860000058],[121.88235638000003,11.864039213000071],[121.88343259700002,11.858170173000074],[121.8834896620001,11.854602827000067],[121.88700293000012,11.852557714000055],[121.88874215400006,11.846740435000074],[121.88720234900006,11.840124710000053],[121.88225247300011,11.833468579000055],[121.8825497670001,11.824001789000022],[121.88045026900012,11.816020968000032],[121.8788387830001,11.810293],[121.87505958100007,11.805258493000055],[121.87358103600002,11.799655672000025],[121.86696578400004,11.791125187000034],[121.86243654200007,11.781601876000023],[121.8531859950001,11.774352651000072],[121.84359594500006,11.764169970000067]]]}},{"type":"Feature","properties":{"adm1_psgc":"600000000","adm2_psgc":"600400000","adm3_psgc":"600406000","municipality_psgc":"600406000","municipality":"Ibajay","province":"Aklan","geo_level":"Mun"},"geometry":{"type":"Polygon","coordinates":[[[122.09612487700007,11.805848799000048],[122.10116193500005,11.800427559000068],[122.10673924000002,11.78149959500007],[122.11963507500002,11.773013674000028],[122.1281677500001,11.763640585000076],[122.14035267500005,11.763775151000063],[122.15647591200002,11.756762532000039],[122.1554060860001,11.74678345900003],[122.160715363,11.741899440000054],[122.16945530700004,11.732364552000035],[122.17238569400001,11.720495239000057],[122.17401514200004,11.70554603100004],[122.17379254600009,11.694161722000045],[122.1706523490001,11.685672361000057],[122.16340885500007,11.677878889000056],[122.14560747800012,11.654464238000061],[122.1431978710001,11.64543599600006],[122.1452340390001,11.637301084000057],[122.17375037700003,11.631962717000022],[122.18462983300003,11.631692419000046],[122.20328032900011,11.634868410000022],[122.21179468600008,11.638855291000024],[122.2133011100001,11.647686943000053],[122.21665330400003,11.65353179300007],[122.21256441800007,11.668958631000065],[122.20697544400002,11.682772149000074],[122.20091473200011,11.704206308000037],[122.20191398600004,11.713312154000048],[122.20519611500005,11.731149491000053],[122.20674363900002,11.750176658000045],[122.20696109400002,11.758254922000047],[122.21045987600006,11.771848435000036],[122.21624649900002,11.785294770000062],[122.21695818700003,11.792141897000022],[122.21786123100004,11.797950285000072],[122.22183007800004,11.813700832000054],[122.21318840200001,11.808786634000056],[122.20025332200011,11.806411420000074],[122.18927353000004,11.810914823000074],[122.17858137400005,11.816800868000032],[122.16758312700006,11.818307901000024],[122.16555575700012,11.822504499000045],[122.16012784100009,11.825584730000058],[122.15262559200006,11.825000916000022],[122.13019691400007,11.82617700800006],[122.126813878,11.826661964000039],[122.11754673400004,11.827777690000062],[122.10169358200005,11.829836091000058],[122.0968292110001,11.82098131600003],[122.09612487700007,11.805848799000048]]]}},{"type":"Feature","properties":{"adm1_psgc":"600000000","adm2_psgc":"600400000","adm3_psgc":"600407000","municipality_psgc":"600407000","municipality":"Kalibo","province":"Aklan","geo_level":"Mun"},"geometry":{"type":"Polygon","coordinates":[[[122.34117374200002,11.66746968600006],[122.34246963600003,11.663624799000047],[122.3554299870001,11.656122009000057],[122.35930740800006,11.663778439000057],[122.36699052300003,11.66829310400004],[122.37107123100009,11.673021065000057],[122.3745552360001,11.673764967000068],[122.37744325900009,11.67212404500003],[122.38116268300008,11.666610547000062],[122.38367876300003,11.660123435000058],[122.38883125800008,11.66336152100007],[122.39144579400012,11.670614396000076],[122.39517615700005,11.669137566000073],[122.39748438800005,11.662639515000027],[122.40196957500005,11.66460862200006],[122.40489400200012,11.668418759000076],[122.40396215300007,11.670342427000033],[122.41052861100002,11.673847154000041],[122.4104835390001,11.677755790000047],[122.40525510100008,11.685530788000051],[122.40085214800001,11.690780200000063],[122.39741526900002,11.695415923000043],[122.3934832870001,11.704774753000041],[122.391583,11.70679198000005],[122.39039661800008,11.71079529900004],[122.39358715500009,11.717685703000027],[122.392536629,11.721412663000022],[122.39061058700008,11.724785875000066],[122.38626916400005,11.727157999000042],[122.38788298800011,11.727950703000031],[122.39202900900011,11.725880420000067],[122.39475081000013,11.72177704300003],[122.39569660400002,11.721940841000048],[122.39105810800004,11.729496327000048],[122.38868342700006,11.73211596200002],[122.38392622800006,11.734935941000057],[122.37445671600007,11.738385246000064],[122.36761125700004,11.738587962000054],[122.36468202800006,11.73362273400005],[122.36244035700008,11.727059187000066],[122.36341534400003,11.71907130900007],[122.36260032500002,11.715905345000065],[122.36232310900004,11.715611193000028],[122.35960241900011,11.711908136000034],[122.35706652500006,11.713337071000067],[122.35439764500006,11.711889504000055],[122.3563669460001,11.709229220000056],[122.35459795200008,11.704758298000058],[122.35217268000008,11.703221123000047],[122.34768297900007,11.703579400000022],[122.34550486,11.701387525000028],[122.34691261300009,11.698425283000065],[122.34417506200009,11.695944520000067],[122.34455565900008,11.688525160000042],[122.34200734900003,11.684180976000048],[122.34156143300004,11.676110452000044],[122.34220092200007,11.673221897000074],[122.34117374200002,11.66746968600006]]]}},{"type":"Feature","properties":{"adm1_psgc":"600000000","adm2_psgc":"600400000","adm3_psgc":"600408000","municipality_psgc":"600408000","municipality":"Lezo","province":"Aklan","geo_level":"Mun"},"geometry":{"type":"Polygon","coordinates":[[[122.28436853800008,11.673481728000072],[122.29616098200006,11.669942993000063],[122.30176779800001,11.664211442000067],[122.31226185000004,11.660376505000043],[122.3186930490001,11.655114615000057],[122.32934412100008,11.655818811000072],[122.33207052200011,11.660832756000044],[122.337955242,11.66500445300005],[122.34226940100007,11.671053404000075],[122.34171577200004,11.67928462200007],[122.3426680770001,11.686016331000078],[122.33401206400005,11.692508819000066],[122.32313842100007,11.695695947000047],[122.312082798,11.702824393000071],[122.30549009300012,11.698016254000036],[122.30099452600007,11.691353975000027],[122.28436853800008,11.673481728000072]]]}},{"type":"Feature","properties":{"adm1_psgc":"600000000","adm2_psgc":"600400000","adm3_psgc":"600409000","municipality_psgc":"600409000","municipality":"Libacao","province":"Aklan","geo_level":"Mun"},"geometry":{"type":"Polygon","coordinates":[[[122.20604443700006,11.32207231500007],[122.21426972200005,11.311229724000041],[122.2468685550001,11.317676399000048],[122.28214923800009,11.336058923000053],[122.30309817300008,11.354028861000074],[122.32350348900002,11.372580824000067],[122.33889209400002,11.400155352000072],[122.346955007,11.427638672000056],[122.34951486000011,11.439508286000034],[122.34311412700002,11.45680951500003],[122.34660324800006,11.46231992000003],[122.35117814200008,11.473529631000076],[122.36580503100002,11.496008380000035],[122.36592848000011,11.508320280000019],[122.34450612900002,11.515651492000073],[122.32192776900001,11.502866900000072],[122.32159694400004,11.49925327500006],[122.30192126700003,11.498176322000063],[122.28255885300007,11.492828637000057],[122.27436681900006,11.481244368000036],[122.26619685300011,11.463201977000036],[122.2583418270001,11.454184689000042],[122.25688239200007,11.429986236000047],[122.25970148600004,11.402746325000066],[122.25925994100011,11.401048076000052],[122.25718807700004,11.389024475000044],[122.24428138600001,11.365248991000044],[122.22780837300002,11.347858924000036],[122.22027980700013,11.333025259000067],[122.20604443700006,11.32207231500007]]]}},{"type":"Feature","properties":{"adm1_psgc":"600000000","adm2_psgc":"600400000","adm3_psgc":"600410000","municipality_psgc":"600410000","municipality":"Madalag","province":"Aklan","geo_level":"Mun"},"geometry":{"type":"Polygon","coordinates":[[[122.1341435800001,11.473020229000038],[122.16252320900003,11.443791744000064],[122.16696420200005,11.402434884000057],[122.18810468400011,11.392383335000032],[122.19372804200007,11.374901635000072],[122.18272222200005,11.345952808000048],[122.198838625,11.312916448000063],[122.23772614600013,11.354448129000046],[122.25718807700004,11.389024475000044],[122.25695206900004,11.445759285000065],[122.26786063400006,11.467015590000074],[122.27223695400006,11.481386359000055],[122.28255885300007,11.492828637000057],[122.2944838320001,11.503049124000029],[122.30878166000002,11.503049124000029],[122.31012809100002,11.503594109000062],[122.33058555400011,11.511804120000019],[122.33184276300005,11.537100825000037],[122.30914116200006,11.535040872000023],[122.31003895700007,11.539550790000023],[122.2915136580001,11.551984776000038],[122.28273520800009,11.565557201000045],[122.2676449070001,11.55910317100006],[122.25138672000004,11.556567975000064],[122.23329704800005,11.552016790000037],[122.15406662400005,11.534144826000043],[122.135959737,11.505061038000063],[122.1341435800001,11.473020229000038]]]}},{"type":"Feature","properties":{"adm1_psgc":"600000000","adm2_psgc":"600400000","adm3_psgc":"600411000","municipality_psgc":"600411000","municipality":"Makato","province":"Aklan","geo_level":"Mun"},"geometry":{"type":"Polygon","coordinates":[[[122.21256441800007,11.668958631000065],[122.232492168,11.668104585000037],[122.24159790400006,11.67037939300007],[122.27499692000004,11.673729879000064],[122.28436853800008,11.673481728000072],[122.30099452600007,11.691353975000027],[122.31164324900011,11.702389233000074],[122.31307740900003,11.716350197000054],[122.30515057700005,11.724056593000052],[122.30852426700005,11.735048016000063],[122.31985207600006,11.73761064700005],[122.30221919300006,11.747664161000046],[122.28515461800009,11.760082422000039],[122.27528905500003,11.754905250000034],[122.27421594900012,11.74551556700004],[122.26020768300008,11.73713287700002],[122.25242118300001,11.735797654000065],[122.24220093500003,11.718618653000021],[122.23981350300005,11.710845620000041],[122.23948037300012,11.697798029000067],[122.23825889700004,11.687248913000074],[122.23384302200009,11.68047011300007],[122.22412251300011,11.678296205000034],[122.21256441800007,11.668958631000065]]]}},{"type":"Feature","properties":{"adm1_psgc":"600000000","adm2_psgc":"600400000","adm3_psgc":"600412000","municipality_psgc":"600412000","municipality":"Malay","province":"Aklan","geo_level":"Mun"},"geometry":{"type":"MultiPolygon","coordinates":[[[[121.88406360700004,11.895986155000058],[121.88867380800002,11.890593205000073],[121.88978147300008,11.887982280000072],[121.89268250100008,11.886531766000076],[121.89594789000012,11.88119138800005],[121.90272414000003,11.872717520000037],[121.90572223800007,11.870509535000053],[121.91233372000012,11.869106648000068],[121.92000295900004,11.865603415000065],[121.92379506900012,11.86295030700006],[121.92721316100005,11.861815438000063],[121.9333560460001,11.858689274000026],[121.94670992800002,11.857948328000075],[121.95317637300002,11.85636539600006],[121.95506242000009,11.854563547000051],[121.9649449850001,11.851536477000025],[121.96918401100004,11.847070361000018],[121.97573179100004,11.84408033400007],[121.98186323900006,11.84218791200004],[121.99620779800011,11.83321783100007],[122.00332330500011,11.825534597000058],[122.010665904,11.822885206000024],[122.007978664,11.829660077000028],[122.00709103700002,11.836337374000037],[122.00191921900011,11.84387283600006],[122.00172313600002,11.845755224000072],[121.9982720910001,11.84873567300002],[121.99729168100008,11.851872986000044],[121.9943504490001,11.855402464000065],[121.99442888200008,11.857755449000024],[121.99019350900006,11.86614776300007],[121.98466399300003,11.870422353000038],[121.982820822,11.876579331000073],[121.981291381,11.879049965000036],[121.98140903,11.882304928000053],[121.98003645600011,11.886501086000067],[121.9758010820001,11.893599258000052],[121.9769383580001,11.900736646000041],[121.97450694000008,11.90591321400007],[121.970657983,11.90767798400003],[121.97140154500005,11.912451863000056],[121.9652401090001,11.921948573000064],[121.95882970900004,11.926057442000058],[121.9594933410001,11.929799196000035],[121.95752146700009,11.934206225000025],[121.95432251000013,11.936415461000024],[121.95447681400003,11.938696197000072],[121.95115797000007,11.939131072000064],[121.95044448600005,11.936260730000072],[121.94997308400002,11.924405987000057],[121.94866172400009,11.920269094000046],[121.94799894900005,11.918429136000043],[121.94423873500011,11.915875608000018],[121.93560369800002,11.911303991000066],[121.93035844200007,11.909758540000041],[121.9274132580001,11.908305193000045],[121.91918022400012,11.90357223400002],[121.91172771300012,11.900752411000044],[121.90134694900007,11.901407981000032],[121.89463762800005,11.900393972000073],[121.8915615720001,11.89801844000004],[121.88707202000012,11.899884822000045],[121.88489700600007,11.899378408000075],[121.88406360700004,11.895986155000058]]],[[[121.90508849700005,11.988213816000043],[121.90714570400006,11.985806946000023],[121.90727427500008,11.982723376000024],[121.91000864300007,11.977486251000073],[121.91421040700004,11.974341845000026],[121.92416211900002,11.961779904000023],[121.92776743500009,11.955535132000021],[121.93081603600001,11.94948655500002],[121.93356751000012,11.94007769500007],[121.94351172400003,11.940699905000033],[121.9454517690001,11.945664324000065],[121.9478261810001,11.94774984600002],[121.94698429200004,11.954844540000067],[121.94088745900001,11.955981334000056],[121.93790971700003,11.954500018000033],[121.93439107800009,11.957072397000045],[121.93283081000004,11.960521458000075],[121.92813826800011,11.966982562000055],[121.92720573300006,11.970059879000075],[121.93022450900004,11.974530054000066],[121.93012064700008,11.981653600000072],[121.92671357800009,11.98215526600006],[121.9249296700001,11.986848181000028],[121.92565272,11.99142610100006],[121.92520980000008,11.999151523000023],[121.92143616600005,11.999298631000041],[121.91956386100001,11.997171260000071],[121.91161924200003,11.99466103800006],[121.90628888300013,11.990951935000052],[121.90508849700005,11.988213816000043]]]]}},{"type":"Feature","properties":{"adm1_psgc":"600000000","adm2_psgc":"600400000","adm3_psgc":"600413000","municipality_psgc":"600413000","municipality":"Malinao","province":"Aklan","geo_level":"Mun"},"geometry":{"type":"Polygon","coordinates":[[[122.13995703900004,11.566394845000046],[122.15406662400005,11.534144826000043],[122.22529974600003,11.550006893000045],[122.25138672000004,11.556567975000064],[122.28273520800009,11.565557201000045],[122.29497121800011,11.571477644000025],[122.30733485500004,11.588826704000041],[122.31155539100008,11.60841663100007],[122.31214326900009,11.618199244000039],[122.30928119900011,11.62949419700004],[122.31446951700002,11.644969181000024],[122.31057725200002,11.660743153000055],[122.30761729000007,11.661869353000041],[122.28812495700004,11.672354041000062],[122.28235114700011,11.67336200300002],[122.27499692000004,11.673729879000064],[122.25276988000007,11.671963352000036],[122.21132341500004,11.667569634000074],[122.21179468600008,11.638855291000024],[122.17375037700003,11.631962717000022],[122.1452340390001,11.637301084000057],[122.14542100100005,11.60385185900003],[122.1491168750001,11.595908877000054],[122.13995703900004,11.566394845000046]]]}},{"type":"Feature","properties":{"adm1_psgc":"600000000","adm2_psgc":"600400000","adm3_psgc":"600414000","municipality_psgc":"600414000","municipality":"Nabas","province":"Aklan","geo_level":"Mun"},"geometry":{"type":"Polygon","coordinates":[[[121.95752146700009,11.934206225000025],[121.95882970900004,11.926057442000058],[121.9652401090001,11.921948573000064],[121.97140154500005,11.912451863000056],[121.97227160400007,11.907246572000076],[121.97740895600009,11.89932485500003],[121.9758010820001,11.893599258000052],[121.98003645600011,11.886501086000067],[121.98351441000011,11.874561413000034],[121.98466399300003,11.870422353000038],[121.99019350900006,11.86614776300007],[121.9982720910001,11.84873567300002],[122.00491325400004,11.839820502000068],[122.0109308420001,11.822090389000037],[122.0265239360001,11.814826519000066],[122.05416372600007,11.799218607000057],[122.065817,11.792590862000052],[122.07541857100011,11.784862795000038],[122.0802225210001,11.782565769000028],[122.0923394880001,11.776767171000072],[122.10673924000002,11.78149959500007],[122.10399619100008,11.78760779700002],[122.10116193500005,11.800427559000068],[122.09736279800006,11.802903401000036],[122.09612487700007,11.805848799000048],[122.09638983600009,11.816851297000028],[122.09813116300008,11.823457158000052],[122.10169358200005,11.829836091000058],[122.09368014400003,11.832298054000036],[122.08591633900005,11.83517346700006],[122.07613174100004,11.840219483000055],[122.06493759500007,11.846742960000027],[122.05395498500003,11.853629652000052],[122.03607051100005,11.866912076000062],[122.03318288700007,11.872157792000054],[122.02495664600009,11.879898422000052],[122.02044967300004,11.88660876800003],[122.0184560460001,11.893225010000036],[122.00475405900012,11.903438087000042],[122.00033174300007,11.907702384000062],[121.99947668500012,11.911765622000074],[121.99105338800007,11.910565860000077],[121.98930035500008,11.912048987000052],[121.9858653120001,11.912873691000074],[121.9759851550001,11.92008513100006],[121.96876907200011,11.924668867000037],[121.95993367500013,11.936479263000022],[121.95752146700009,11.934206225000025]]]}},{"type":"Feature","properties":{"adm1_psgc":"600000000","adm2_psgc":"600400000","adm3_psgc":"600415000","municipality_psgc":"600415000","municipality":"New Washington","province":"Aklan","geo_level":"Mun"},"geometry":{"type":"MultiPolygon","coordinates":[[[[122.35260467800002,11.65032650100005],[122.36140344000012,11.638617561000045],[122.36351655900012,11.636995547000026],[122.36786125100002,11.630449711000042],[122.36696516700009,11.625257876000033],[122.36775850800007,11.621240248000047],[122.37118800700011,11.616914205000056],[122.37222395300012,11.615956228000073],[122.373319905,11.617510189000031],[122.37472664900008,11.617477474000053],[122.37683676400003,11.616446953000036],[122.37703305300009,11.615809011000067],[122.37613339100007,11.613518964000038],[122.3774092750001,11.612586587000065],[122.37830170000005,11.613836947000037],[122.38203551700008,11.61497359100002],[122.3833333680001,11.614225715000028],[122.38449737500004,11.615232525000069],[122.38583228100002,11.614377641000035],[122.39092854500005,11.613082302000068],[122.39317462000008,11.611681103000024],[122.39457577100006,11.612026695000054],[122.39498910300006,11.61387425600003],[122.3944656970001,11.619218282000077],[122.39615524800001,11.61983415000003],[122.39702325900011,11.619572236000067],[122.39886018000004,11.618351737000063],[122.4013528370001,11.617261847000064],[122.40223492100006,11.615711146000022],[122.40120556700003,11.612875200000076],[122.40421723600004,11.609380767000058],[122.405135899,11.607041925000031],[122.40678885200008,11.605677660000024],[122.40963062300011,11.605908679000036],[122.41094525100006,11.60479685900003],[122.41281725500005,11.601863397000045],[122.41601918700007,11.601616428000057],[122.416626059,11.602694184000026],[122.41714775600008,11.606117403000042],[122.41843658200003,11.605858715000066],[122.41941612900007,11.601233015000048],[122.42070165300002,11.60167039600003],[122.42259913400007,11.597964743000032],[122.42351063900003,11.597519184000019],[122.42596143700007,11.600945690000058],[122.42815247900012,11.602713887000052],[122.4292806640001,11.60326632300007],[122.42868121200001,11.60453919200006],[122.42873728800011,11.60640194200005],[122.43055891100005,11.611110025000073],[122.42965436500005,11.61223809200004],[122.426616179,11.61129984300004],[122.42573876000006,11.610781230000041],[122.42385606100004,11.61112536300004],[122.4220099920001,11.611882766000065],[122.42201426400005,11.615118206000032],[122.42287453500012,11.615431191000024],[122.42390278000005,11.616907204000027],[122.42558152000002,11.61777305000004],[122.42481485800012,11.618463911000049],[122.42347629100004,11.618162407000057],[122.42171576100007,11.618569188000036],[122.41953729200007,11.617603417000055],[122.4172530310001,11.617056407000062],[122.41671063100013,11.616511691000026],[122.41572753700007,11.616613846000064],[122.41565085200011,11.617456125000045],[122.41459367100003,11.619440126000027],[122.41429239800006,11.62080911300006],[122.4121390580001,11.619487923000067],[122.41149343900007,11.618325988000038],[122.41089414900013,11.618892502000051],[122.41264708100006,11.621187103000066],[122.4124552200001,11.622265366000022],[122.41026584900008,11.621699557000058],[122.40980669800001,11.623015863000031],[122.41094574400007,11.623915134000073],[122.41118592600002,11.62599794000005],[122.41048508700011,11.628724731000034],[122.40980608400001,11.62981196900006],[122.41203565300009,11.629641072000025],[122.41315004600007,11.631385013000056],[122.41278260900005,11.632120282000074],[122.41266755900004,11.635520893000033],[122.40980591500009,11.634910025000066],[122.40673815600007,11.634961055000073],[122.40521374400011,11.631881655000026],[122.40312177700004,11.630264089000036],[122.402816,11.63113173700003],[122.40175021100002,11.632262285000023],[122.40061792700011,11.632629819000046],[122.3992769250001,11.634795116000019],[122.39723396800004,11.635711160000026],[122.39769360400008,11.636013971000065],[122.39804780300007,11.637538507000045],[122.39872815600005,11.637980333000026],[122.39903235200006,11.638996481000047],[122.39855406400011,11.63959724600005],[122.39924695500008,11.64391569600002],[122.39861640400011,11.644350030000057],[122.39861638600007,11.645491374000072],[122.40159269300013,11.646070567000036],[122.40590022500008,11.646536976000048],[122.40686112000003,11.645981129000061],[122.4080359410001,11.646730158000024],[122.40859741700002,11.646555625000076],[122.40896138900007,11.648338340000066],[122.40868230600007,11.648681089000037],[122.40861103800012,11.65118055800002],[122.40949971400005,11.651740669000048],[122.40802969300013,11.652626378000035],[122.4076183950001,11.65189504700004],[122.40601350300004,11.651862772000074],[122.40426316000003,11.650871207000023],[122.40381712400006,11.649880266000023],[122.40224317600007,11.649529503000053],[122.40224013600006,11.651211517000034],[122.40223677100005,11.653072885000027],[122.40273647200002,11.65312482400003],[122.40464602500005,11.652046676000053],[122.4055979960001,11.65395257000006],[122.40576928000006,11.65541384900007],[122.40509872900007,11.65629546100007],[122.40620584700004,11.657084970000028],[122.40714523400005,11.655970246000036],[122.40879980800003,11.656064515000024],[122.4090953000001,11.656686781000076],[122.40869410500011,11.657871441000053],[122.41018923800004,11.658399514000049],[122.41128335100007,11.657738712000022],[122.41149287400003,11.65619691700004],[122.41277262200002,11.656350008000059],[122.41259392000006,11.65814690600007],[122.4133764190001,11.658480941000049],[122.41586367200011,11.654909670000047],[122.41717012600009,11.65577228600006],[122.41710176300012,11.65653344100002],[122.4186840770001,11.65579642800003],[122.41857410100009,11.65390038700002],[122.41941743500001,11.65266397500005],[122.42011936500013,11.650707214000022],[122.42157878900002,11.650464966000072],[122.42222685200011,11.651005653000022],[122.42193121200012,11.65199775900004],[122.42451049600004,11.65395773700004],[122.42499825300001,11.652615885000047],[122.42652042500004,11.653011468000045],[122.42846141400001,11.653005756000022],[122.42947395500006,11.65244895500007],[122.43039513300006,11.651052535000076],[122.43110166800011,11.648915190000023],[122.43128009500003,11.646586237000063],[122.43216782500006,11.64349181700004],[122.43306116200006,11.641089253000073],[122.43389335300003,11.640443370000071],[122.43347159000007,11.639783437000062],[122.43449014600004,11.637885303000074],[122.43537733600012,11.636789593000056],[122.43788965700003,11.635420176000027],[122.43937485300012,11.634997271000028],[122.44079435300013,11.63613766900005],[122.4413305810001,11.635523730000044],[122.43972487400004,11.634236370000052],[122.440005315,11.632694962000073],[122.44095869700004,11.630875828000057],[122.44369848300006,11.62737699300004],[122.44552635100003,11.62541205000002],[122.44630644700011,11.62490008800006],[122.44962328400005,11.623530223000046],[122.45098393100012,11.622549759000037],[122.45260457100005,11.620891328000026],[122.45488730000012,11.619251009000035],[122.45577394600004,11.618042098000046],[122.45782588100008,11.616336407000064],[122.4589025,11.615826712000057],[122.46078944900013,11.613807832000077],[122.4623708920001,11.613324601000041],[122.46588284000005,11.612820848000068],[122.46816057800004,11.612080581000042],[122.46988594100002,11.611009728000054],[122.4714395530001,11.609450742000035],[122.47231566800008,11.607757468000043],[122.47391831200004,11.606571941000027],[122.47608121400002,11.606184898000038],[122.47727018300009,11.605551574000058],[122.4783636960001,11.603843720000043],[122.47898562700004,11.603410027000054],[122.4788581890001,11.60230106000006],[122.4796112680001,11.60098209900002],[122.4804508750001,11.600554975000023],[122.48163555900011,11.597168667000062],[122.48141990500004,11.595540576000078],[122.48477090500012,11.594888761000046],[122.48616731600009,11.595066922000054],[122.488350964,11.593130446000032],[122.48872175200006,11.595114182000032],[122.48945042900003,11.59711821400003],[122.48951420300013,11.598447422000053],[122.49045745200009,11.59913791200006],[122.49175815500007,11.601442878000057],[122.49185736400011,11.60235011200007],[122.49399635400005,11.603378743000064],[122.4943842900001,11.604748377000021],[122.49392176600008,11.605984913000043],[122.49284031500007,11.607775653000033],[122.49311767900008,11.609025641000072],[122.49225852100005,11.609933782000043],[122.48714157600011,11.612823392000053],[122.48415898700013,11.614967750000062],[122.47566570200001,11.619182793000048],[122.47014900200008,11.62238830500007],[122.46651988200007,11.624570584000029],[122.45934678700006,11.629512154000054],[122.45665605600006,11.631544578000046],[122.45268663100002,11.634719858000036],[122.44822045900003,11.638768212000057],[122.44424579700002,11.642543565000038],[122.44102293000003,11.645413842000035],[122.43808999200009,11.647800202000038],[122.4334121180001,11.652003351000074],[122.4300902970001,11.655111876000035],[122.42577978800013,11.659076303000063],[122.42515703200002,11.660015117000057],[122.42074061800008,11.66439259200007],[122.4181066750001,11.66750865800003],[122.41537133900012,11.671082831000033],[122.414325576,11.672684076000051],[122.4104835390001,11.677755790000047],[122.41014018500006,11.677534303000073],[122.41021865900005,11.675587535000032],[122.410828851,11.675867012000028],[122.41191625800002,11.67469473900007],[122.41052861100002,11.673847154000041],[122.407688559,11.672844955000071],[122.40657240700011,11.673800404000076],[122.40573967500008,11.673029032000043],[122.40440146100002,11.672880017000068],[122.40425829000003,11.671956708000037],[122.40545041100007,11.67141616300006],[122.40650859100003,11.67227532000004],[122.40698374100008,11.670305521000046],[122.40551215900005,11.669682751000039],[122.40513388300008,11.670674570000072],[122.40411899900006,11.67049465900004],[122.40489400200012,11.668418759000076],[122.40454801800001,11.667408487000044],[122.40284578100011,11.667002533000074],[122.40189299800012,11.665538478000029],[122.40196957500005,11.66460862200006],[122.40083186800007,11.663328702000058],[122.39972698100006,11.663941313000064],[122.39748438800005,11.662639515000027],[122.39690459500002,11.662617636000048],[122.39624822600001,11.663678766000032],[122.3945088490001,11.662508242000056],[122.39406033000013,11.664477348000045],[122.39497924600003,11.665604115000065],[122.3960403760001,11.666183907000056],[122.39576688900001,11.667879526000034],[122.39517615700005,11.669137566000073],[122.39350241600003,11.670559699000023],[122.39304295800002,11.670067422000043],[122.39170834200002,11.670592517000046],[122.39145673400004,11.66866716900006],[122.39030808800008,11.668710927000065],[122.38919226100006,11.668153014000039],[122.38980487200001,11.666873094000037],[122.38883125800008,11.66336152100007],[122.38668712000003,11.66116268500002],[122.38574632500001,11.66063759000002],[122.38432419300013,11.66053913500002],[122.38367876300003,11.660123435000058],[122.38150180600009,11.660659469000052],[122.38020000800009,11.661840933000065],[122.37923733400011,11.66187375100003],[122.37965303400006,11.663109912000035],[122.38047349500003,11.663088034000053],[122.38163308000003,11.663908495000046],[122.38182999000004,11.665002443000052],[122.3811079850001,11.665582235000043],[122.38116268300008,11.666610547000062],[122.38023282700009,11.667616979000059],[122.38004685500005,11.668415561000073],[122.37882163300004,11.670373727000026],[122.37744325900009,11.67212404500003],[122.37545227400005,11.672277197000025],[122.3745552360001,11.673764967000068],[122.37301276900008,11.673950938000074],[122.37012474700009,11.672495987000046],[122.36959965100004,11.67182867900004],[122.369818441,11.670559699000025],[122.36817684000005,11.67045771100004],[122.36699052300003,11.66829310400004],[122.36479218100008,11.668214390000061],[122.36396867200004,11.666975300000045],[122.35930740800006,11.663778439000057],[122.3554299870001,11.656122009000057],[122.35260467800002,11.65032650100005]]],[[[122.39821254700006,11.636020331000053],[122.39982023800009,11.635420662000058],[122.40011480900013,11.634450541000033],[122.40155457000003,11.633342706000064],[122.40260230800003,11.633547935000022],[122.4042000300001,11.632969984000058],[122.405038396,11.633975735000035],[122.40484061500001,11.635283195000055],[122.40601351400005,11.636851541000057],[122.40919391300008,11.637636696000072],[122.41164356200012,11.636867250000021],[122.41272647800008,11.638055673000055],[122.41157277100001,11.639073520000064],[122.41093819600006,11.64047946100004],[122.4110929000001,11.64206684900006],[122.40935931000001,11.642412328000033],[122.40727398000001,11.643541773000036],[122.40653576800003,11.644872794000035],[122.40479636300006,11.645337610000068],[122.40380620500004,11.644313105000036],[122.40220377100002,11.643377722000025],[122.40058917100009,11.64177844000005],[122.39898812000003,11.637726947000033],[122.39843945400004,11.637594405000073],[122.39821254700006,11.636020331000053]]],[[[122.41071026100009,11.652877874000069],[122.41106383600004,11.650604500000043],[122.41165630400006,11.648956040000028],[122.4128729360001,11.648473501000069],[122.41402849100008,11.649346411000064],[122.41537895100008,11.650827658000027],[122.41796046700004,11.651513545000057],[122.41698501800012,11.652298154000048],[122.41637346300001,11.653961741000044],[122.415529965,11.653960308000023],[122.41490747600007,11.65477142700007],[122.41071026100009,11.652877874000069]]],[[[122.41188409500013,11.626360068000052],[122.41298915000006,11.625157424000065],[122.41387855000005,11.62358408400007],[122.41381931300009,11.62240743700005],[122.41514023800005,11.621509943000035],[122.41593527100008,11.62032752300007],[122.4163871190001,11.618741196000032],[122.4203175140001,11.619234190000043],[122.42200086200013,11.619965172000036],[122.42225586300003,11.621794031000036],[122.41901091500006,11.623977772000044],[122.41771857000003,11.625367431000027],[122.41849219800007,11.62989824300007],[122.41703593700004,11.630473713000072],[122.41429082700006,11.629837316000021],[122.41371517300001,11.628823803000046],[122.41252084200006,11.628055482000033],[122.41188409500013,11.626360068000052]]],[[[122.41811819100008,11.643794818000062],[122.41834094500007,11.642318040000076],[122.42019405200006,11.640401001000042],[122.42174323400002,11.64077661500005],[122.42344467200009,11.640612373000069],[122.4240279400001,11.641629019000048],[122.42537780000009,11.640337398000039],[122.42436129000009,11.63890430500004],[122.42490315400006,11.63718401500006],[122.42499392600007,11.635645556000043],[122.4255840080001,11.635033968000073],[122.42812337200007,11.635783063000076],[122.43060633800009,11.634304455000063],[122.43058798100003,11.631187946000066],[122.43093403800005,11.628923873000074],[122.43180848900009,11.627850734000052],[122.432907537,11.627719959000046],[122.43418423500009,11.626115898000021],[122.43556900300008,11.625006088000076],[122.43673530100013,11.623353151000057],[122.43826874300011,11.620627169000043],[122.43953144800003,11.619233050000048],[122.44095471700007,11.618675769000049],[122.44419384000003,11.618129885000027],[122.44603835800001,11.61727304200002],[122.4474305560001,11.615495596000073],[122.4490383230001,11.613938695000058],[122.44999529900008,11.611549442000069],[122.45291293100001,11.610508682000045],[122.45844371900013,11.608188121000069],[122.45901363200007,11.608427297000048],[122.45907863200011,11.611279558000035],[122.4586037990001,11.61204722900004],[122.45721330800006,11.612742509000043],[122.45580496200013,11.613962263000074],[122.45286252100006,11.61600502300007],[122.45268801800012,11.616499982000049],[122.45107875400004,11.617471156000022],[122.450600785,11.618325489000027],[122.44851870100001,11.619919090000048],[122.44808461600009,11.619929650000072],[122.4466928280001,11.62144646200005],[122.44404854800007,11.62339191500007],[122.44214112600002,11.625469492000034],[122.44135247100007,11.626871807000043],[122.43935130500005,11.629566659000034],[122.43808668600003,11.631838509000032],[122.43528654800004,11.633687709000071],[122.43440117800004,11.633818270000061],[122.432776579,11.635149426000057],[122.43072736500007,11.638086020000062],[122.43082269800004,11.638463749000039],[122.42962154600002,11.642269445000068],[122.42966902900002,11.643176439000058],[122.42847995500004,11.647847046000038],[122.4285074510001,11.650095524000047],[122.42706501800002,11.650711044000046],[122.42617529100005,11.65054868200002],[122.42229349800006,11.648539767000043],[122.42169927500004,11.647676038000046],[122.42022320900003,11.648111603000073],[122.41884332400002,11.647055708000039],[122.41811819100008,11.643794818000062]]],[[[122.41987517300005,11.634032846000027],[122.42077744300003,11.631908117000021],[122.4211429510001,11.629866245000073],[122.42101428700006,11.627250842000022],[122.42160097800001,11.625132695000046],[122.42242404700006,11.62488114700005],[122.4265792870001,11.626684364000027],[122.4281577270001,11.627722871000058],[122.42952506900006,11.628029567000052],[122.42913490900004,11.630130694000057],[122.4291420740001,11.633021499000053],[122.42544171200007,11.632768866000049],[122.4215289320001,11.63399836000002],[122.42079726600004,11.634587067000039],[122.41987517300005,11.634032846000027]]],[[[122.4223499090001,11.620079831000057],[122.42552341200008,11.621281734000037],[122.42687091200001,11.62115076300006],[122.42845413500002,11.620363968000047],[122.42850644300006,11.617859010000075],[122.42764066200004,11.61680476600003],[122.42566907500009,11.61580677300003],[122.42444404900004,11.614859039000066],[122.42370918500002,11.613769294000065],[122.42380642000012,11.613134590000074],[122.42485339100006,11.61223273400003],[122.42907131300002,11.613636520000057],[122.43025748700006,11.613737137000046],[122.43047208200005,11.61457134300002],[122.43121617200006,11.614739444000064],[122.43260916100006,11.61443178700006],[122.43360500900008,11.614754295000065],[122.43453736000004,11.615773316000059],[122.4367430640001,11.617177265000066],[122.43707400400002,11.61765021000002],[122.43486670100002,11.621223148000066],[122.43414286100005,11.622667910000073],[122.43119635100005,11.625326910000066],[122.42869331500003,11.624663970000027],[122.4250421910001,11.622295561000046],[122.42254647700008,11.621860070000023],[122.4223499090001,11.620079831000057]]],[[[122.42258772500008,11.651705562000076],[122.42299448000006,11.651094684000041],[122.42446009000003,11.65269466500007],[122.42258772500008,11.651705562000076]]],[[[122.42987830300001,11.605028310000021],[122.43115930400006,11.603493952000067],[122.43263889100002,11.603332848000035],[122.43480944900013,11.603761073000044],[122.4349174580001,11.604625549000046],[122.43678112400005,11.607376991000022],[122.43956489900006,11.609888451000073],[122.44228046700006,11.611834051000072],[122.44433313,11.612422955000056],[122.44471242600004,11.61367053500004],[122.44460140600006,11.614734817000056],[122.44293594200009,11.615443070000026],[122.44118504400002,11.615477221000049],[122.43919005300008,11.616351941000062],[122.43831121700009,11.616457430000027],[122.43738806300007,11.615880926000047],[122.43539646300007,11.615450305000024],[122.43427342200006,11.614258317000065],[122.43266055400011,11.614273993000042],[122.43149104600002,11.614632123000034],[122.4305248080001,11.613834965000024],[122.43171044500002,11.613046652000037],[122.43202929200004,11.611827920000053],[122.43174468200004,11.610389908000053],[122.43016566200005,11.606841790000033],[122.42987830300001,11.605028310000021]]]]}},{"type":"Feature","properties":{"adm1_psgc":"600000000","adm2_psgc":"600400000","adm3_psgc":"600416000","municipality_psgc":"600416000","municipality":"Numancia","province":"Aklan","geo_level":"Mun"},"geometry":{"type":"Polygon","coordinates":[[[122.30515057700005,11.724056593000052],[122.30983910900011,11.718486648000065],[122.3132758270001,11.716401957000073],[122.31386245200008,11.712295578000067],[122.31270137500009,11.704802664000056],[122.31607568000005,11.698224353000056],[122.32124803500004,11.696009404000053],[122.32799498500003,11.69591848300007],[122.33284564100006,11.694215339000039],[122.33774184200001,11.688861832000043],[122.3426680770001,11.686016331000078],[122.34455565900008,11.688525160000042],[122.34417506200009,11.695944520000067],[122.34691261300009,11.698425283000065],[122.34708227700004,11.703395979000046],[122.35217268000008,11.703221123000047],[122.3563669460001,11.709229220000056],[122.35450110500007,11.712591788000054],[122.35960241900011,11.711908136000034],[122.36339261400008,11.719837451000044],[122.36244035700008,11.727059187000066],[122.3646628890001,11.736836078000067],[122.36294526000006,11.738636250000066],[122.35610441900008,11.739028089000044],[122.3417899320001,11.738039309000044],[122.33897695300006,11.736972599000069],[122.33130037,11.735422485000072],[122.32051397500005,11.739370015000077],[122.32024828500005,11.73195166000005],[122.31369565600005,11.731019943000037],[122.30852426700005,11.735048016000063],[122.30515057700005,11.724056593000052]]]}},{"type":"Feature","properties":{"adm1_psgc":"600000000","adm2_psgc":"600400000","adm3_psgc":"600417000","municipality_psgc":"600417000","municipality":"Tangalan","province":"Aklan","geo_level":"Mun"},"geometry":{"type":"Polygon","coordinates":[[[122.20091473200011,11.704206308000037],[122.20392011900003,11.69371091200003],[122.20966066100003,11.672659499000076],[122.21256441800007,11.668958631000065],[122.22412251300011,11.678296205000034],[122.23384302200009,11.68047011300007],[122.23825889700004,11.687248913000074],[122.24145306600008,11.715081471000078],[122.25242118300001,11.735797654000065],[122.26020768300008,11.73713287700002],[122.2729543810001,11.744593186000031],[122.27495765500011,11.75447916300004],[122.27912383300009,11.75746176900003],[122.28511187600009,11.761064715000032],[122.273818559,11.769343969000035],[122.26586091100012,11.776447716000064],[122.26115923400006,11.78223043500003],[122.25664178400007,11.79416436300005],[122.24937512300004,11.788499141000045],[122.2407445660001,11.787255755000043],[122.22487558000012,11.79607389000006],[122.2167943410001,11.790978632000074],[122.20696109400002,11.758254922000047],[122.20642842600012,11.743198301000065],[122.20519611500005,11.731149491000053],[122.20091473200011,11.704206308000037]]]}}]}